start=new Date('2022-11-07T00:00:00.000Z').valueOf();
sats=[{"MEAN_ANOMALY":"310.4647","COUNTRY_CODE":"US","TLE_LINE1":"1 52277U 22041S   22310.79525621 -.00000914  00000-0 -39369-4 0  9997","FILE":"3647189","REF_FRAME":"TEME","OBJECT_NAME":"STARLINK-3787","SEMIMAJOR_AXIS":"6917.946","MEAN_MOTION_DDOT":"0.0000000000000","CENTER_NAME":"EARTH","BSTAR":"-0.00003936900000","REV_AT_EPOCH":"3157","OBJECT_ID":"2022-041S","MEAN_MOTION":"15.08818439","GP_ID":"217062498","MEAN_ELEMENT_THEORY":"SGP4","PERIAPSIS":"538.565","CLASSIFICATION_TYPE":"U","ARG_OF_PERICENTER":"49.6502","INCLINATION":"53.2192","EPHEMERIS_TYPE":"0","SITE":"AFETR","DECAY_DATE":null,"MEAN_MOTION_DOT":"-0.00000914","APOAPSIS":"541.057","TIME_SYSTEM":"UTC","LAUNCH_DATE":"2022-04-21","TLE_LINE2":"2 52277  53.2192 180.9529 0001801  49.6502 310.4647 15.08818439 31575","RA_OF_ASC_NODE":"180.9529","OBJECT_TYPE":"PAYLOAD","ELEMENT_SET_NO":"999","NORAD_CAT_ID":"52277","ECCENTRICITY":"0.00018010","RCS_SIZE":"LARGE","EPOCH":"2022-11-06T19:05:10.136544","PERIOD":"95.439"},{"ECCENTRICITY":"0.00018130","NORAD_CAT_ID":"52278","ELEMENT_SET_NO":"999","OBJECT_TYPE":"PAYLOAD","PERIOD":"95.438","EPOCH":"2022-11-06T01:20:00.647520","RCS_SIZE":"LARGE","TIME_SYSTEM":"UTC","APOAPSIS":"541.001","RA_OF_ASC_NODE":"184.2765","TLE_LINE2":"2 52278  53.2180 184.2765 0001813  55.9462 304.1702 15.08839623 30243","LAUNCH_DATE":"2022-04-21","SITE":"AFETR","EPHEMERIS_TYPE":"0","INCLINATION":"53.2180","MEAN_MOTION_DOT":"-0.00002419","DECAY_DATE":null,"MEAN_ELEMENT_THEORY":"SGP4","ARG_OF_PERICENTER":"55.9462","CLASSIFICATION_TYPE":"U","PERIAPSIS":"538.492","GP_ID":"217058042","MEAN_MOTION":"15.08839623","MEAN_MOTION_DDOT":"0.0000000000000","SEMIMAJOR_AXIS":"6917.882","OBJECT_ID":"2022-041T","BSTAR":"-0.00013394000000","REV_AT_EPOCH":"3024","CENTER_NAME":"EARTH","FILE":"3647066","TLE_LINE1":"1 52278U 22041T   22310.05556305 -.00002419  00000-0 -13394-3 0  9991","REF_FRAME":"TEME","OBJECT_NAME":"STARLINK-3780","MEAN_ANOMALY":"304.1702","COUNTRY_CODE":"US"},{"REF_FRAME":"TEME","TLE_LINE1":"1 52279U 22041U   22310.39172381  .00009417  00000-0  60143-3 0  9994","FILE":"3647066","OBJECT_NAME":"STARLINK-3686","MEAN_ANOMALY":"280.0765","COUNTRY_CODE":"US","MEAN_MOTION":"15.09297376","GP_ID":"217056790","SEMIMAJOR_AXIS":"6916.483","MEAN_MOTION_DDOT":"0.0000000000000","REV_AT_EPOCH":"3029","BSTAR":"0.00060143000000","OBJECT_ID":"2022-041U","CENTER_NAME":"EARTH","SITE":"AFETR","INCLINATION":"53.2185","EPHEMERIS_TYPE":"0","MEAN_MOTION_DOT":"0.00009417","DECAY_DATE":null,"MEAN_ELEMENT_THEORY":"SGP4","CLASSIFICATION_TYPE":"U","ARG_OF_PERICENTER":"80.0584","PERIAPSIS":"536.163","NORAD_CAT_ID":"52279","ECCENTRICITY":"0.00031590","ELEMENT_SET_NO":"999","OBJECT_TYPE":"PAYLOAD","EPOCH":"2022-11-06T09:24:04.937184","PERIOD":"95.409","RCS_SIZE":"LARGE","TIME_SYSTEM":"UTC","APOAPSIS":"540.533","TLE_LINE2":"2 52279  53.2185 182.7372 0003159  80.0584 280.0765 15.09297376 30295","RA_OF_ASC_NODE":"182.7372","LAUNCH_DATE":"2022-04-21"},{"REF_FRAME":"TEME","TLE_LINE1":"1 52280U 22041V   22310.77317620  .00009628  00000-0  62236-3 0  9994","FILE":"3647192","OBJECT_NAME":"STARLINK-3764","MEAN_ANOMALY":"312.9583","COUNTRY_CODE":"US","MEAN_MOTION":"15.08829052","GP_ID":"217062503","SEMIMAJOR_AXIS":"6917.914","MEAN_MOTION_DDOT":"0.0000000000000","BSTAR":"0.00062236000000","REV_AT_EPOCH":"3157","OBJECT_ID":"2022-041V","CENTER_NAME":"EARTH","SITE":"AFETR","INCLINATION":"53.2157","EPHEMERIS_TYPE":"0","MEAN_MOTION_DOT":"0.00009628","DECAY_DATE":null,"MEAN_ELEMENT_THEORY":"SGP4","CLASSIFICATION_TYPE":"U","ARG_OF_PERICENTER":"47.1567","PERIAPSIS":"538.480","NORAD_CAT_ID":"52280","ELEMENT_SET_NO":"999","ECCENTRICITY":"0.00018770","OBJECT_TYPE":"PAYLOAD","PERIOD":"95.438","EPOCH":"2022-11-06T18:33:22.423680","RCS_SIZE":"LARGE","TIME_SYSTEM":"UTC","APOAPSIS":"541.077","TLE_LINE2":"2 52280  53.2157 181.0649 0001877  47.1567 312.9583 15.08829052 31571","RA_OF_ASC_NODE":"181.0649","LAUNCH_DATE":"2022-04-21"},{"COUNTRY_CODE":"US","MEAN_ANOMALY":"321.1011","OBJECT_NAME":"STARLINK-3779","FILE":"3647066","TLE_LINE1":"1 52281U 22041W   22310.39139937 -.00001620  00000-0 -83696-4 0  9996","REF_FRAME":"TEME","OBJECT_ID":"2022-041W","BSTAR":"-0.00008369600000","REV_AT_EPOCH":"3029","CENTER_NAME":"EARTH","SEMIMAJOR_AXIS":"6917.896","MEAN_MOTION_DDOT":"0.0000000000000","GP_ID":"217058291","MEAN_MOTION":"15.08834825","ARG_OF_PERICENTER":"39.0114","CLASSIFICATION_TYPE":"U","PERIAPSIS":"538.485","MEAN_ELEMENT_THEORY":"SGP4","MEAN_MOTION_DOT":"-0.00001620","DECAY_DATE":null,"SITE":"AFETR","EPHEMERIS_TYPE":"0","INCLINATION":"53.2194","RA_OF_ASC_NODE":"182.7716","TLE_LINE2":"2 52281  53.2194 182.7716 0001845  39.0114 321.1011 15.08834825 30299","LAUNCH_DATE":"2022-04-21","TIME_SYSTEM":"UTC","APOAPSIS":"541.038","PERIOD":"95.438","EPOCH":"2022-11-06T09:23:36.905568","RCS_SIZE":"LARGE","NORAD_CAT_ID":"52281","ELEMENT_SET_NO":"999","ECCENTRICITY":"0.00018450","OBJECT_TYPE":"PAYLOAD"},{"PERIAPSIS":"538.209","ARG_OF_PERICENTER":"30.9423","CLASSIFICATION_TYPE":"U","MEAN_ELEMENT_THEORY":"SGP4","DECAY_DATE":null,"MEAN_MOTION_DOT":"-0.00000441","EPHEMERIS_TYPE":"0","INCLINATION":"53.2171","SITE":"AFETR","LAUNCH_DATE":"2022-04-21","RA_OF_ASC_NODE":"171.0687","TLE_LINE2":"2 52282  53.2171 171.0687 0002245  30.9423 329.1701 15.08834580 31700","APOAPSIS":"541.315","TIME_SYSTEM":"UTC","RCS_SIZE":"LARGE","PERIOD":"95.438","EPOCH":"2022-11-06T18:24:04.301280","OBJECT_TYPE":"PAYLOAD","NORAD_CAT_ID":"52282","ECCENTRICITY":"0.00022450","ELEMENT_SET_NO":"999","COUNTRY_CODE":"US","MEAN_ANOMALY":"329.1701","OBJECT_NAME":"STARLINK-3783","TLE_LINE1":"1 52282U 22041X   22310.76671645 -.00000441  00000-0 -95802-5 0  9998","REF_FRAME":"TEME","FILE":"3647196","CENTER_NAME":"EARTH","OBJECT_ID":"2022-041X","REV_AT_EPOCH":"3170","BSTAR":"-0.00000958020000","MEAN_MOTION_DDOT":"0.0000000000000","SEMIMAJOR_AXIS":"6917.897","GP_ID":"217063274","MEAN_MOTION":"15.08834580"},{"GP_ID":"217057290","MEAN_MOTION":"15.08832209","MEAN_MOTION_DDOT":"0.0000000000000","SEMIMAJOR_AXIS":"6917.904","OBJECT_ID":"2022-041Y","REV_AT_EPOCH":"3030","BSTAR":"-0.00007874800000","CENTER_NAME":"EARTH","TLE_LINE1":"1 52283U 22041Y   22310.44931699 -.00001541  00000-0 -78748-4 0  9993","REF_FRAME":"TEME","FILE":"3647066","OBJECT_NAME":"STARLINK-3789","MEAN_ANOMALY":"316.8645","COUNTRY_CODE":"US","ECCENTRICITY":"0.00017480","NORAD_CAT_ID":"52283","ELEMENT_SET_NO":"999","OBJECT_TYPE":"PAYLOAD","EPOCH":"2022-11-06T10:47:00.987936","PERIOD":"95.438","RCS_SIZE":"LARGE","TIME_SYSTEM":"UTC","APOAPSIS":"540.978","RA_OF_ASC_NODE":"182.5163","TLE_LINE2":"2 52283  53.2174 182.5163 0001748  43.2484 316.8645 15.08832209 30302","LAUNCH_DATE":"2022-04-21","SITE":"AFETR","EPHEMERIS_TYPE":"0","INCLINATION":"53.2174","MEAN_MOTION_DOT":"-0.00001541","DECAY_DATE":null,"MEAN_ELEMENT_THEORY":"SGP4","ARG_OF_PERICENTER":"43.2484","CLASSIFICATION_TYPE":"U","PERIAPSIS":"538.560"},{"PERIAPSIS":"538.469","ARG_OF_PERICENTER":"35.0658","CLASSIFICATION_TYPE":"U","MEAN_ELEMENT_THEORY":"SGP4","DECAY_DATE":null,"MEAN_MOTION_DOT":"-0.00000197","EPHEMERIS_TYPE":"0","INCLINATION":"53.2165","SITE":"AFETR","LAUNCH_DATE":"2022-04-21","RA_OF_ASC_NODE":"171.1013","TLE_LINE2":"2 52284  53.2165 171.1013 0001898  35.0658 325.0459 15.08827856 31701","APOAPSIS":"541.096","TIME_SYSTEM":"UTC","RCS_SIZE":"LARGE","EPOCH":"2022-11-06T18:13:29.283744","PERIOD":"95.438","OBJECT_TYPE":"PAYLOAD","ECCENTRICITY":"0.00018980","NORAD_CAT_ID":"52284","ELEMENT_SET_NO":"999","COUNTRY_CODE":"US","MEAN_ANOMALY":"325.0459","OBJECT_NAME":"STARLINK-3561","TLE_LINE1":"1 52284U 22041Z   22310.75936671 -.00000197  00000-0  57464-5 0  9991","FILE":"3647196","REF_FRAME":"TEME","CENTER_NAME":"EARTH","OBJECT_ID":"2022-041Z","REV_AT_EPOCH":"3170","BSTAR":"0.00000574640000","MEAN_MOTION_DDOT":"0.0000000000000","SEMIMAJOR_AXIS":"6917.918","GP_ID":"217062855","MEAN_MOTION":"15.08827856"},{"COUNTRY_CODE":"US","MEAN_ANOMALY":"312.4092","OBJECT_NAME":"STARLINK-3775","FILE":"3647196","TLE_LINE1":"1 52285U 22041AA  22310.77685204  .00009155  00000-0  59275-3 0  9999","REF_FRAME":"TEME","CENTER_NAME":"EARTH","OBJECT_ID":"2022-041AA","REV_AT_EPOCH":"3158","BSTAR":"0.00059275000000","SEMIMAJOR_AXIS":"6917.920","MEAN_MOTION_DDOT":"0.0000000000000","GP_ID":"217062857","MEAN_MOTION":"15.08827192","PERIAPSIS":"538.272","ARG_OF_PERICENTER":"47.7085","CLASSIFICATION_TYPE":"U","MEAN_ELEMENT_THEORY":"SGP4","DECAY_DATE":null,"MEAN_MOTION_DOT":"0.00009155","EPHEMERIS_TYPE":"0","INCLINATION":"53.2163","SITE":"AFETR","LAUNCH_DATE":"2022-04-21","RA_OF_ASC_NODE":"181.0472","TLE_LINE2":"2 52285  53.2163 181.0472 0002186  47.7085 312.4092 15.08827192 31586","APOAPSIS":"541.297","TIME_SYSTEM":"UTC","RCS_SIZE":"LARGE","PERIOD":"95.438","EPOCH":"2022-11-06T18:38:40.016256","OBJECT_TYPE":"PAYLOAD","ECCENTRICITY":"0.00021860","ELEMENT_SET_NO":"999","NORAD_CAT_ID":"52285"},{"DECAY_DATE":null,"MEAN_MOTION_DOT":"-0.00004006","EPHEMERIS_TYPE":"0","INCLINATION":"53.2162","SITE":"AFETR","PERIAPSIS":"538.366","ARG_OF_PERICENTER":"52.4720","CLASSIFICATION_TYPE":"U","MEAN_ELEMENT_THEORY":"SGP4","RCS_SIZE":"LARGE","PERIOD":"95.437","EPOCH":"2022-11-06T08:30:33.574464","OBJECT_TYPE":"PAYLOAD","NORAD_CAT_ID":"52286","ECCENTRICITY":"0.00019650","ELEMENT_SET_NO":"999","LAUNCH_DATE":"2022-04-21","RA_OF_ASC_NODE":"172.9158","TLE_LINE2":"2 52286  53.2162 172.9158 0001965  52.4720 307.6451 15.08846569 30425","APOAPSIS":"541.085","TIME_SYSTEM":"UTC","OBJECT_NAME":"STARLINK-3802","TLE_LINE1":"1 52286U 22041AB  22310.35455526 -.00004006  00000-0 -23368-3 0  9992","FILE":"3647066","REF_FRAME":"TEME","COUNTRY_CODE":"US","MEAN_ANOMALY":"307.6451","GP_ID":"217058043","MEAN_MOTION":"15.08846569","CENTER_NAME":"EARTH","OBJECT_ID":"2022-041AB","BSTAR":"-0.00023368000000","REV_AT_EPOCH":"3042","MEAN_MOTION_DDOT":"0.0000000000000","SEMIMAJOR_AXIS":"6917.860"}];
